ORBCOMM FM103           
1 40091U 14040F   24128.06704074  .00000877  00000+0  23250-3 0  9994
2 40091  47.0045 133.4250 0002377 237.9955 122.0699 14.56547196504863
ORBCOMM FM114           
1 41179U 15081A   24128.85521612  .00001189  00000+0  30173-3 0  9999
2 41179  47.0040  38.9950 0002003 285.9979  74.0685 14.56575860445344
ORBCOMM FM119           
1 41180U 15081B   24128.75668706  .00000910  00000+0  23980-3 0  9995
2 41180  47.0011 308.6494 0001397 324.6842  35.3950 14.56537259446581
ORBCOMM FM105           
1 41181U 15081C   24128.77802309  .00000531  00000+0  19807-3 0  9999
2 41181  47.0012 275.2144 0002270 290.3728  69.6908 14.44364403442122
ORBCOMM FM110           
1 41182U 15081D   24128.83246964  .00001303  00000+0  32699-3 0  9998
2 41182  47.0030  38.5109 0001308 103.3942 256.7089 14.56567675445217
ORBCOMM FM118           
1 41183U 15081E   24128.87841887  .00001304  00000+0  32726-3 0  9990
2 41183  47.0053  38.6001 0001388  99.3599 260.7442 14.56555891445322
ORBCOMM FM112           
1 41184U 15081F   24128.59684488  .00001231  00000+0  31100-3 0  9996
2 41184  46.9992 308.6203 0001271 299.2873  60.7885 14.56578558446509
ORBCOMM FM113           
1 41185U 15081G   24128.77979698  .00001203  00000+0  30468-3 0  9992
2 41185  47.0011 308.0244 0000825 309.9726  50.1087 14.56573037446518
